{"type": "FeatureCollection", "features": [ {"type": "Feature", "properties": {"norad_id": 54234, "name": "NOAA 21 (JPSS-2)", "group": "weather", "lat": 57.82346032916185, "lon": -100.91135949698102, "alt_km": 819.5333077774794, "timestamp": "2025-12-02T19:35:50.205503+00:00", "meta": {"OBJECT_NAME": "NOAA 21 (JPSS-2)", "OBJECT_ID": "2022-150A", "EPOCH": "2025-12-02T10:51:45.133344", "MEAN_MOTION": 14.19519494, "ECCENTRICITY": 0.0002555, "INCLINATION": 98.7447, "RA_OF_ASC_NODE": 272.8899, "ARG_OF_PERICENTER": 57.2224, "MEAN_ANOMALY": 302.9198, "EPHEMERIS_TYPE": 0, "CLASSIFICATION_TYPE": "U", "NORAD_CAT_ID": 54234, "ELEMENT_SET_NO": 999, "REV_AT_EPOCH": 15863, "BSTAR": 8.5857e-05, "MEAN_MOTION_DOT": 1.37e-06, "MEAN_MOTION_DDOT": 0}, "tle": {"line1": "1 54234U 22150A   25336.45260571  .00000137  00000+0  85857-4 0  9994", "line2": "2 54234  98.7447 272.8899 0002555  57.2224 302.9198 14.19519494158635"}}, "geometry": {"type": "Point", "coordinates": [-100.91135949698102, 57.82346032916185]}}, {"type": "Feature", "properties": {"norad_id": 54743, "name": "METEOSAT-12 (MTG-I1)", "group": "weather", "lat": -0.2747338611869507, "lon": 5.5694050316222885, "alt_km": 35788.88367516693, "timestamp": "2025-12-02T19:35:50.205516+00:00", "meta": {"OBJECT_NAME": "METEOSAT-12 (MTG-I1)", "OBJECT_ID": "2022-170C", "EPOCH": "2025-12-02T06:56:04.396128", "MEAN_MOTION": 1.00273512, "ECCENTRICITY": 0.0001453, "INCLINATION": 0.7158, "RA_OF_ASC_NODE": 29.8067, "ARG_OF_PERICENTER": 213.6171, "MEAN_ANOMALY": 291.6922, "EPHEMERIS_TYPE": 0, "CLASSIFICATION_TYPE": "U", "NORAD_CAT_ID": 54743, "ELEMENT_SET_NO": 999, "REV_AT_EPOCH": 1100, "BSTAR": 0, "MEAN_MOTION_DOT": 1.4e-07, "MEAN_MOTION_DDOT": 0}, "tle": {"line1": "1 54743U 22170C   25336.28893977  .00000014  00000+0  00000+0 0  9990", "line2": "2 54743   0.7158  29.8067 0001453 213.6171 291.6922  1.00273512 11006"}}, "geometry": {"type": "Point", "coordinates": [5.5694050316222885, -0.2747338611869507]}}, {"type": "Feature", "properties": {"norad_id": 55973, "name": "TIANMU-1 03", "group": "weather", "lat": -17.11541033273831, "lon": 141.52229225881013, "alt_km": 450.64378108225355, "timestamp": "2025-12-02T19:35:50.205548+00:00", "meta": {"OBJECT_NAME": "TIANMU-1 03", "OBJECT_ID": "2023-039A", "EPOCH": "2025-12-02T11:52:37.805664", "MEAN_MOTION": 15.40459721, "ECCENTRICITY": 0.0004542, "INCLINATION": 97.5102, "RA_OF_ASC_NODE": 138.8637, "ARG_OF_PERICENTER": 90.7104, "MEAN_ANOMALY": 269.4662, "EPHEMERIS_TYPE": 0, "CLASSIFICATION_TYPE": "U", "NORAD_CAT_ID": 55973, "ELEMENT_SET_NO": 999, "REV_AT_EPOCH": 15048, "BSTAR": 0.00046085, "MEAN_MOTION_DOT": 0.00018608, "MEAN_MOTION_DDOT": 0}, "tle": {"line1": "1 55973U 23039A   25336.49488201  .00018608  00000+0  46085-3 0  9999", "line2": "2 55973  97.5102 138.8637 0004542  90.7104 269.4662 15.40459721150488"}}, "geometry": {"type": "Point", "coordinates": [141.52229225881013, -17.11541033273831]}}, {"type": "Feature", "properties": {"norad_id": 55974, "name": "TIANMU-1 04", "group": "weather", "lat": 80.97574497024088, "lon": 82.2999282167873, "alt_km": 432.74716085292766, "timestamp": "2025-12-02T19:35:50.205560+00:00", "meta": {"OBJECT_NAME": "TIANMU-1 04", "OBJECT_ID": "2023-039B", "EPOCH": "2025-12-02T11:26:12.691392", "MEAN_MOTION": 15.40787784, "ECCENTRICITY": 0.0005246, "INCLINATION": 97.5033, "RA_OF_ASC_NODE": 138.0402, "ARG_OF_PERICENTER": 86.7656, "MEAN_ANOMALY": 273.419, "EPHEMERIS_TYPE": 0, "CLASSIFICATION_TYPE": "U", "NORAD_CAT_ID": 55974, "ELEMENT_SET_NO": 999, "REV_AT_EPOCH": 15048, "BSTAR": 0.00047601, "MEAN_MOTION_DOT": 0.00019437, "MEAN_MOTION_DDOT": 0}, "tle": {"line1": "1 55974U 23039B   25336.47653578  .00019437  00000+0  47601-3 0  9995", "line2": "2 55974  97.5033 138.0402 0005246  86.7656 273.4190 15.40787784150487"}}, "geometry": {"type": "Point", "coordinates": [82.2999282167873, 80.97574497024088]}}, {"type": "Feature", "properties": {"norad_id": 55975, "name": "TIANMU-1 05", "group": "weather", "lat": 49.06831272934803, "lon": -32.371283127812724, "alt_km": 437.76740069779316, "timestamp": "2025-12-02T19:35:50.205571+00:00", "meta": {"OBJECT_NAME": "TIANMU-1 05", "OBJECT_ID": "2023-039C", "EPOCH": "2025-12-02T12:47:52.135584", "MEAN_MOTION": 15.40419475, "ECCENTRICITY": 0.0004321, "INCLINATION": 97.5079, "RA_OF_ASC_NODE": 138.5902, "ARG_OF_PERICENTER": 107.3207, "MEAN_ANOMALY": 252.8511, "EPHEMERIS_TYPE": 0, "CLASSIFICATION_TYPE": "U", "NORAD_CAT_ID": 55975, "ELEMENT_SET_NO": 999, "REV_AT_EPOCH": 15047, "BSTAR": 0.00047312, "MEAN_MOTION_DOT": 0.00019081, "MEAN_MOTION_DDOT": 0}, "tle": {"line1": "1 55975U 23039C   25336.53324231  .00019081  00000+0  47312-3 0  9998", "line2": "2 55975  97.5079 138.5902 0004321 107.3207 252.8511 15.40419475150479"}}, "geometry": {"type": "Point", "coordinates": [-32.371283127812724, 49.06831272934803]}}, {"type": "Feature", "properties": {"norad_id": 55976, "name": "TIANMU-1 06", "group": "weather", "lat": 69.6110384234368, "lon": 118.5507902319496, "alt_km": 434.12314139049886, "timestamp": "2025-12-02T19:35:50.205581+00:00", "meta": {"OBJECT_NAME": "TIANMU-1 06", "OBJECT_ID": "2023-039D", "EPOCH": "2025-12-02T11:29:50.772768", "MEAN_MOTION": 15.40840911, "ECCENTRICITY": 0.0004663, "INCLINATION": 97.5091, "RA_OF_ASC_NODE": 138.9913, "ARG_OF_PERICENTER": 102.9717, "MEAN_ANOMALY": 257.205, "EPHEMERIS_TYPE": 0, "CLASSIFICATION_TYPE": "U", "NORAD_CAT_ID": 55976, "ELEMENT_SET_NO": 999, "REV_AT_EPOCH": 15048, "BSTAR": 0.00047347, "MEAN_MOTION_DOT": 0.00019365, "MEAN_MOTION_DDOT": 0}, "tle": {"line1": "1 55976U 23039D   25336.47905987  .00019365  00000+0  47347-3 0  9998", "line2": "2 55976  97.5091 138.9913 0004663 102.9717 257.2050 15.40840911150487"}}, "geometry": {"type": "Point", "coordinates": [118.5507902319496, 69.6110384234368]}}, {"type": "Feature", "properties": {"norad_id": 56232, "name": "FENGYUN 3G", "group": "weather", "lat": -0.596504403116054, "lon": -81.8746903725866, "alt_km": 410.59818789560995, "timestamp": "2025-12-02T19:35:50.205591+00:00", "meta": {"OBJECT_NAME": "FENGYUN 3G", "OBJECT_ID": "2023-055A", "EPOCH": "2025-12-02T08:47:20.785920", "MEAN_MOTION": 15.52695826, "ECCENTRICITY": 0.0009232, "INCLINATION": 49.9947, "RA_OF_ASC_NODE": 280.9482, "ARG_OF_PERICENTER": 98.5063, "MEAN_ANOMALY": 261.6951, "EPHEMERIS_TYPE": 0, "CLASSIFICATION_TYPE": "U", "NORAD_CAT_ID": 56232, "ELEMENT_SET_NO": 999, "REV_AT_EPOCH": 14941, "BSTAR": 0.00059893, "MEAN_MOTION_DOT": 0.00037462, "MEAN_MOTION_DDOT": 0}, "tle": {"line1": "1 56232U 23055A   25336.36621280  .00037462  00000+0  59893-3 0  9998", "line2": "2 56232  49.9947 280.9482 0009232  98.5063 261.6951 15.52695826149410"}}, "geometry": {"type": "Point", "coordinates": [-81.8746903725866, -0.596504403116054]}}, {"type": "Feature", "properties": {"norad_id": 57166, "name": "METEOR-M2 3", "group": "weather", "lat": 14.70282055733847, "lon": -147.18511980030416, "alt_km": 814.644521219815, "timestamp": "2025-12-02T19:35:50.205601+00:00", "meta": {"OBJECT_NAME": "METEOR-M2 3", "OBJECT_ID": "2023-091A", "EPOCH": "2025-12-02T12:04:47.692128", "MEAN_MOTION": 14.24024052, "ECCENTRICITY": 0.0004447, "INCLINATION": 98.6392, "RA_OF_ASC_NODE": 30.2208, "ARG_OF_PERICENTER": 36.2133, "MEAN_ANOMALY": 323.9347, "EPHEMERIS_TYPE": 0, "CLASSIFICATION_TYPE": "U", "NORAD_CAT_ID": 57166, "ELEMENT_SET_NO": 999, "REV_AT_EPOCH": 12652, "BSTAR": 3.7531e-05, "MEAN_MOTION_DOT": 4.3e-07, "MEAN_MOTION_DDOT": 0}, "tle": {"line1": "1 57166U 23091A   25336.50332977  .00000043  00000+0  37531-4 0  9994", "line2": "2 57166  98.6392  30.2208 0004447  36.2133 323.9347 14.24024052126527"}}, "geometry": {"type": "Point", "coordinates": [-147.18511980030416, 14.70282055733847]}}, {"type": "Feature", "properties": {"norad_id": 57399, "name": "TIANMU-1 07", "group": "weather", "lat": -64.55573965106785, "lon": -168.72146719784504, "alt_km": 492.40170858684087, "timestamp": "2025-12-02T19:35:50.205612+00:00", "meta": {"OBJECT_NAME": "TIANMU-1 07", "OBJECT_ID": "2023-101A", "EPOCH": "2025-12-02T12:14:20.057568", "MEAN_MOTION": 15.27835933, "ECCENTRICITY": 0.0005582, "INCLINATION": 97.2899, "RA_OF_ASC_NODE": 26.587, "ARG_OF_PERICENTER": 107.6684, "MEAN_ANOMALY": 252.5165, "EPHEMERIS_TYPE": 0, "CLASSIFICATION_TYPE": "U", "NORAD_CAT_ID": 57399, "ELEMENT_SET_NO": 999, "REV_AT_EPOCH": 13159, "BSTAR": 0.00034555, "MEAN_MOTION_DOT": 9.326e-05, "MEAN_MOTION_DDOT": 0}, "tle": {"line1": "1 57399U 23101A   25336.50995437  .00009326  00000+0  34555-3 0  9995", "line2": "2 57399  97.2899  26.5870 0005582 107.6684 252.5165 15.27835933131590"}}, "geometry": {"type": "Point", "coordinates": [-168.72146719784504, -64.55573965106785]}}, {"type": "Feature", "properties": {"norad_id": 57400, "name": "TIANMU-1 08", "group": "weather", "lat": 66.55086050548752, "lon": 9.524283625962264, "alt_km": 472.1762439507347, "timestamp": "2025-12-02T19:35:50.205622+00:00", "meta": {"OBJECT_NAME": "TIANMU-1 08", "OBJECT_ID": "2023-101B", "EPOCH": "2025-12-02T11:26:34.605888", "MEAN_MOTION": 15.27820508, "ECCENTRICITY": 0.0007441, "INCLINATION": 97.2887, "RA_OF_ASC_NODE": 26.3543, "ARG_OF_PERICENTER": 112.859, "MEAN_ANOMALY": 247.3436, "EPHEMERIS_TYPE": 0, "CLASSIFICATION_TYPE": "U", "NORAD_CAT_ID": 57400, "ELEMENT_SET_NO": 999, "REV_AT_EPOCH": 13158, "BSTAR": 0.00034518, "MEAN_MOTION_DOT": 9.315e-05, "MEAN_MOTION_DDOT": 0}, "tle": {"line1": "1 57400U 23101B   25336.47678942  .00009315  00000+0  34518-3 0  9990", "line2": "2 57400  97.2887  26.3543 0007441 112.8590 247.3436 15.27820508131589"}}, "geometry": {"type": "Point", "coordinates": [9.524283625962264, 66.55086050548752]}}]}